[{"OBJECT_NAME":"YAOGAN-30 04A","OBJECT_ID":"2017-085A","EPOCH":"2026-03-10T00:12:03.633696","MEAN_MOTION":15.02145245,"ECCENTRICITY":0.00047902,"INCLINATION":34.9971,"RA_OF_ASC_NODE":34.3088,"ARG_OF_PERICENTER":351.1621,"MEAN_ANOMALY":8.9003,"EPHEMERIS_TYPE":0,"CLASSIFICATION_TYPE":"U","NORAD_CAT_ID":43081,"ELEMENT_SET_NO":999,"REV_AT_EPOCH":44779,"BSTAR":0.00033587992,"MEAN_MOTION_DOT":4.482e-5,"MEAN_MOTION_DDOT":0},{"OBJECT_NAME":"PICO-02A021","OBJECT_ID":"2024-149BY","EPOCH":"2026-03-09T03:41:37.126752","MEAN_MOTION":15.02201963,"ECCENTRICITY":0.00041954,"INCLINATION":97.6823,"RA_OF_ASC_NODE":147.908,"ARG_OF_PERICENTER":9.5557,"MEAN_ANOMALY":350.5747,"EPHEMERIS_TYPE":0,"CLASSIFICATION_TYPE":"U","NORAD_CAT_ID":60538,"ELEMENT_SET_NO":999,"REV_AT_EPOCH":8471,"BSTAR":0.00064833457,"MEAN_MOTION_DOT":8.488e-5,"MEAN_MOTION_DDOT":0}]
